NORAD_CAT_ID,OBJECT_NAME,OBJECT_TYPE,EPOCH,MEAN_MOTION,ECCENTRICITY,INCLINATION,RA_OF_ASC_NODE,ARG_OF_PERICENTER,MEAN_ANOMALY,BSTAR,MEAN_MOTION_DOT,MEAN_MOTION_DDOT,TLE_LINE0,TLE_LINE1,TLE_LINE2,SEMIMAJOR_AXIS,PERIOD,APOGEE,PERIGEE,DECAYED
53976.0,STARLINK-5134,PAYLOAD,2023-04-01 20:22:02,15.08824455,0.0001227,53.2179,340.0754,78.6332,281.4798,0.00061876,9.569e-05,0.0,0 STARLINK-5134,1 53976U 22125N   23091.84864297  .00009569  00000-0  61876-3 0  9995,2 53976  53.2179 340.0754 0001227  78.6332 281.4798 15.08824455 27643,6917.928,95.439,540.642,538.944,0.0
53976.0,STARLINK-5134,PAYLOAD,2023-04-01 23:32:49,15.08833571,0.0001177,53.2179,339.4798,85.8723,274.2404,0.0017879,0.00028276,0.0,0 STARLINK-5134,1 53976U 22125N   23091.98112405  .00028276  00000-0  17879-2 0  9996,2 53976  53.2179 339.4798 0001177  85.8723 274.2404 15.08833571 27734,6917.9,95.438,540.579,538.951,0.0
53976.0,STARLINK-5134,PAYLOAD,2023-04-02 20:12:50,15.08847081,0.0001188,53.2168,335.615,87.0689,273.0439,0.00085456,0.00013341,0.0,0 STARLINK-5134,1 53976U 22125N   23092.84224629  .00013341  00000-0  85456-3 0  9998,2 53976  53.2168 335.6150 0001188  87.0689 273.0439 15.08847081 27869,6917.859,95.437,540.546,538.902,0.0
53976.0,STARLINK-5134,PAYLOAD,2023-04-02 21:48:13,15.08846935,0.0001257,53.2174,335.3176,90.8363,269.2773,0.00074682,0.0001162,0.0,0 STARLINK-5134,1 53976U 22125N   23092.90848598  .00011620  00000-0  74682-3 0  9999,2 53976  53.2174 335.3176 0001257  90.8363 269.2773 15.08846935 27808,6917.859,95.437,540.594,538.855,0.0
53976.0,STARLINK-5134,PAYLOAD,2023-04-03 02:34:22,15.08856466,0.0001208,53.2168,334.4249,86.0702,274.0428,0.00092155,0.00014415,0.0,0 STARLINK-5134,1 53976U 22125N   23093.10720372  .00014415  00000-0  92155-3 0  9991,2 53976  53.2168 334.4249 0001208  86.0702 274.0428 15.08856466 27836,6917.83,95.437,540.531,538.859,0.0
53976.0,STARLINK-5134,PAYLOAD,2023-04-04 00:49:46,15.08856137,0.0001523,53.2168,330.2608,84.3204,275.7962,0.00064675,0.00010025,0.0,0 STARLINK-5134,1 53976U 22125N   23094.03456144  .00010025  00000-0  64675-3 0  9996,2 53976  53.2168 330.2608 0001523  84.3204 275.7962 15.08856137 28047,6917.831,95.437,540.75,538.642,0.0
53976.0,STARLINK-5134,PAYLOAD,2023-04-04 21:29:46,15.08847348,0.0001113,53.2159,326.396,96.0061,264.1058,0.00060014,9.278e-05,0.0,0 STARLINK-5134,1 53976U 22125N   23094.89567886  .00009278  00000-0  60014-3 0  9997,2 53976  53.2159 326.3960 0001113  96.0061 264.1058 15.08847348 28109,6917.858,95.437,540.493,538.953,0.0
53976.0,STARLINK-5134,PAYLOAD,2023-04-05 00:40:32,15.0884958,0.0001166,53.2161,325.801,95.4799,264.6327,0.00019585,2.831e-05,0.0,0 STARLINK-5134,1 53976U 22125N   23095.02815729  .00002831  00000-0  19585-3 0  9990,2 53976  53.2161 325.8010 0001166  95.4799 264.6327 15.08849580 28194,6917.851,95.437,540.523,538.909,0.0
53976.0,STARLINK-5134,PAYLOAD,2023-04-05 21:20:33,15.08837813,0.0001163,53.2166,321.9337,102.695,257.4172,1.328e-05,-7.6e-07,0.0,0 STARLINK-5134,1 53976U 22125N   23095.88928175 -.00000076  00000-0  13280-4 0  9991,2 53976  53.2166 321.9337 0001163 102.6950 257.4172 15.08837813 28256,6917.887,95.438,540.557,538.948,0.0
53976.0,STARLINK-5134,PAYLOAD,2023-04-06 00:31:20,15.08840898,0.0001207,53.2166,321.3387,101.8592,258.2536,4.5899e-05,4.43e-06,0.0,0 STARLINK-5134,1 53976U 22125N   23096.02176125  .00000443  00000-0  45899-4 0  9996,2 53976  53.2166 321.3387 0001207 101.8592 258.2536 15.08840898 28347,6917.878,95.437,540.578,538.908,0.0
53976.0,STARLINK-5134,PAYLOAD,2023-04-06 21:11:21,15.08839505,9.59e-05,53.215,317.4749,95.9047,264.2054,1.943e-05,2.2e-07,0.0,0 STARLINK-5134,1 53976U 22125N   23096.88288503  .00000022  00000-0  19430-4 0  9999,2 53976  53.2150 317.4749 0000959  95.9047 264.2054 15.08839505 28401,6917.882,95.438,540.41,539.083,0.0
53976.0,STARLINK-5134,PAYLOAD,2023-04-07 00:22:07,15.08841662,0.0001112,53.2151,316.8797,93.7504,266.3615,4.4697e-05,4.24e-06,0.0,0 STARLINK-5134,1 53976U 22125N   23097.01536288  .00000424  00000-0  44697-4 0  9990,2 53976  53.2151 316.8797 0001112  93.7504 266.3615 15.08841662 28429,6917.875,95.437,540.51,538.971,0.0
53976.0,STARLINK-5134,PAYLOAD,2023-04-08 00:12:54,15.08846153,0.0001122,53.2168,312.418,89.3614,270.7506,0.00020693,3.008e-05,0.0,0 STARLINK-5134,1 53976U 22125N   23098.00896202  .00003008  00000-0  20693-3 0  9995,2 53976  53.2168 312.4180 0001122  89.3614 270.7506 15.08846153 28641,6917.862,95.437,540.503,538.95,0.0
53976.0,STARLINK-5134,PAYLOAD,2023-04-08 20:52:55,15.08839317,0.0001067,53.2153,308.5539,92.2143,267.8971,5.3106e-05,5.57e-06,0.0,0 STARLINK-5134,1 53976U 22125N   23098.87008649  .00000557  00000-0  53106-4 0  9992,2 53976  53.2153 308.5539 0001067  92.2143 267.8971 15.08839317 28778,6917.882,95.438,540.486,539.009,0.0
53976.0,STARLINK-5134,PAYLOAD,2023-04-09 00:03:41,15.08841095,0.0001081,53.215,307.9586,92.1415,267.9701,7.8138e-05,9.56e-06,0.0,0 STARLINK-5134,1 53976U 22125N   23099.00256576  .00000956  00000-0  78138-4 0  9997,2 53976  53.2150 307.9586 0001081  92.1415 267.9701 15.08841095 28720,6917.877,95.437,540.49,538.994,0.0
53976.0,STARLINK-5134,PAYLOAD,2023-04-09 20:43:42,15.08840862,9.79e-05,53.2146,304.0929,95.252,264.8584,7.3496e-06,-1.71e-06,0.0,0 STARLINK-5134,1 53976U 22125N   23099.86368705 -.00000171  00000-0  73496-5 0  9992,2 53976  53.2146 304.0929 0000979  95.2520 264.8584 15.08840862 28850,6917.878,95.438,540.42,539.065,0.0
53976.0,STARLINK-5134,PAYLOAD,2023-04-09 23:54:28,15.08843468,9.02e-05,53.2151,303.4976,91.8067,268.3029,-1.2489e-05,-4.86e-06,0.0,0 STARLINK-5134,1 53976U 22125N   23099.99616573 -.00000486  00000-0 -12489-4 0  9999,2 53976  53.2151 303.4976 0000902  91.8067 268.3029 15.08843468 28943,6917.87,95.437,540.359,539.111,0.0
53976.0,STARLINK-5134,PAYLOAD,2023-04-10 23:45:17,15.08824228,9.54e-05,53.2159,299.037,82.5644,277.5457,-5.8704e-05,-1.221e-05,0.0,0 STARLINK-5134,1 53976U 22125N   23100.98978606 -.00001221  00000-0 -58704-4 0  9997,2 53976  53.2159 299.0370 0000954  82.5644 277.5457 15.08824228 29091,6917.929,95.439,540.454,539.134,0.0
53976.0,STARLINK-5134,PAYLOAD,2023-04-11 23:36:04,15.08847825,8.08e-05,53.2165,294.5767,67.5501,292.5577,0.00029231,4.368e-05,0.0,0 STARLINK-5134,1 53976U 22125N   23101.98337985  .00004368  00000-0  29231-3 0  9992,2 53976  53.2165 294.5767 0000808  67.5501 292.5577 15.08847825 29246,6917.856,95.437,540.28,539.163,0.0
53976.0,STARLINK-5134,PAYLOAD,2023-04-12 05:57:36,15.08848283,1.68e-05,53.2158,293.3866,115.8168,244.2841,0.00039348,5.982e-05,0.0,0 STARLINK-5134,1 53976U 22125N   23102.24833851  .00005982  00000-0  39348-3 0  9998,2 53976  53.2158 293.3866 0000168 115.8168 244.2841 15.08848283 29214,6917.855,95.437,539.836,539.604,0.0
53976.0,STARLINK-5134,PAYLOAD,2023-04-13 05:48:23,15.08844891,0.0001697,53.2093,288.9294,68.4847,291.6326,3.718e-05,3.04e-06,0.0,0 STARLINK-5134,1 53976U 22125N   23103.24193751  .00000304  00000-0  37180-4 0  9993,2 53976  53.2093 288.9294 0001697  68.4847 291.6326 15.08844891 29363,6917.865,95.437,540.904,538.556,0.0
53976.0,STARLINK-5134,PAYLOAD,2023-04-14 12:00:42,15.08849618,0.0001362,53.2127,283.2769,72.2892,287.8249,0.000172,2.451e-05,0.0,0 STARLINK-5134,1 53976U 22125N   23104.50049057  .00002451  00000-0  17200-3 0  9997,2 53976  53.2127 283.2769 0001362  72.2892 287.8249 15.08849618 29552,6917.851,95.437,540.658,538.774,0.0
53976.0,STARLINK-5134,PAYLOAD,2023-04-14 18:22:14,15.08851777,0.0001298,53.2128,282.0878,74.2899,285.8236,0.00024745,3.654e-05,0.0,0 STARLINK-5134,1 53976U 22125N   23104.76544871  .00003654  00000-0  24745-3 0  9997,2 53976  53.2128 282.0878 0001298  74.2899 285.8236 15.08851777 29663,6917.844,95.437,540.607,538.811,0.0
53976.0,STARLINK-5134,PAYLOAD,2023-04-15 11:51:29,15.08842825,8.25e-05,53.2154,278.816,73.761,286.3472,0.00011126,1.484e-05,0.0,0 STARLINK-5134,1 53976U 22125N   23105.49408981  .00001484  00000-0  11126-3 0  9997,2 53976  53.2154 278.8160 0000825  73.7610 286.3472 15.08842825 29706,6917.872,95.437,540.307,539.166,0.0
53976.0,STARLINK-5134,PAYLOAD,2023-04-15 21:23:47,15.08854154,8.73e-05,53.2154,277.0307,89.4217,270.6875,0.00049585,7.615e-05,0.0,0 STARLINK-5134,1 53976U 22125N   23105.89152578  .00007615  00000-0  49585-3 0  9991,2 53976  53.2154 277.0307 0000873  89.4217 270.6875 15.08854154 29767,6917.837,95.437,540.306,539.098,0.0
53976.0,STARLINK-5134,PAYLOAD,2023-04-16 11:42:16,15.08844274,7.69e-05,53.2138,274.3545,77.3265,282.7813,0.00028746,4.291e-05,0.0,0 STARLINK-5134,1 53976U 22125N   23106.48768830  .00004291  00000-0  28746-3 0  9994,2 53976  53.2138 274.3545 0000769  77.3265 282.7813 15.08844274 29922,6917.867,95.437,540.264,539.2,0.0
53976.0,STARLINK-5134,PAYLOAD,2023-04-16 21:14:34,15.08862372,7.56e-05,53.2152,272.5715,88.5297,271.5782,0.0010705,0.00016801,0.0,0 STARLINK-5134,1 53976U 22125N   23106.88512457  .00016801  00000-0  10705-2 0  9995,2 53976  53.2152 272.5715 0000756  88.5297 271.5782 15.08862372 29911,6917.812,95.436,540.2,539.154,0.0
53976.0,STARLINK-5134,PAYLOAD,2023-04-17 11:33:03,15.08837379,0.0001391,53.2169,269.8961,98.8545,261.2605,-0.00018908,-3.296e-05,0.0,0 STARLINK-5134,1 53976U 22125N   23107.48128996 -.00003296  00000-0 -18908-3 0  9993,2 53976  53.2169 269.8961 0001391  98.8545 261.2605 15.08837379 30075,6917.888,95.438,540.716,538.791,0.0
53976.0,STARLINK-5134,PAYLOAD,2023-04-17 21:05:22,15.08844486,0.0001104,53.2155,268.1109,88.1134,271.9984,0.0006997,0.00010867,0.0,0 STARLINK-5134,1 53976U 22125N   23107.87873111  .00010867  00000-0  69970-3 0  9997,2 53976  53.2155 268.1109 0001104  88.1134 271.9984 15.08844486 30068,6917.867,95.437,540.495,538.968,0.0
53976.0,STARLINK-5134,PAYLOAD,2023-04-18 03:26:55,15.08835938,8.6e-05,53.2151,266.9209,85.6838,274.4253,0.0004823,7.395e-05,0.0,0 STARLINK-5134,1 53976U 22125N   23108.14369385  .00007395  00000-0  48230-3 0  9999,2 53976  53.2151 266.9209 0000860  85.6838 274.4253 15.08835938 30106,6917.893,95.438,540.353,539.163,0.0
